ONEWEB-0156             
1 48052U 21025L   24331.82371403  .00000300  00000+0  78766-3 0  9999
2 48052  87.8925  73.0592 0001641 103.8369 256.2943 13.13469832179095
ONEWEB-0161             
1 48053U 21025M   24331.26349635  .00000111  00000+0  26832-3 0  9997
2 48053  87.8928  73.1823 0001498 106.8253 253.3041 13.13472702178953
ONEWEB-0158             
1 48054U 21025N   24331.22539844 -.00000127  00000+0 -38302-3 0  9991
2 48054  87.8927  73.1761 0001795 104.4990 255.6338 13.13469634179074
ONEWEB-0157             
1 48055U 21025P   24331.24919545 -.00000211  00000+0 -61144-3 0  9998
2 48055  87.8925  73.1845 0001281 114.0070 246.1194 13.13469098179015
ONEWEB-0162             
1 48056U 21025Q   24331.82213666  .00000324  00000+0  85280-3 0  9994
2 48056  87.8923  73.0640 0001670 104.8954 255.2360 13.13470473179066
ONEWEB-0155             
1 48057U 21025R   24331.30950497 -.00000366  00000+0 -10363-2 0  9995
2 48057  87.8924  73.1787 0001460  98.7845 261.3449 13.13471803179130
ONEWEB-0149             
1 48058U 21025S   24330.79688619 -.00000406  00000+0 -11472-2 0  9999
2 48058  87.8924  73.2761 0001880 107.5855 252.5480 13.13470537178870
ONEWEB-0148             
1 48059U 21025T   24330.30492273  .00000033  00000+0  54416-4 0  9997
2 48059  87.8933  73.3909 0002074 127.1977 232.9341 13.13470284178939
ONEWEB-0160             
1 48060U 21025U   24331.23492769 -.00000219  00000+0 -63450-3 0  9997
2 48060  87.8930  73.2017 0002312  85.5979 274.5414 13.13467942179000
ONEWEB-0163             
1 48061U 21025V   24331.22064371 -.00001299  00000+0 -35915-2 0  9994
2 48061  87.8929  73.1931 0001556 119.1632 240.9653 13.13476665179129
ONEWEB-0159             
1 48062U 21025W   24331.74277688  .00000411  00000+0  10912-2 0  9992
2 48062  87.8925  73.0703 0001623 111.2279 248.9024 13.13470462179115
ONEWEB-0164             
1 48063U 21025X   24330.81118744  .00000279  00000+0  72915-3 0  9991
2 48063  87.8925  73.2663 0001594  98.5077 261.6233 13.13474520178979
ONEWEB-0167             
1 48064U 21025Y   24331.75514018  .00000165  00000+0  41708-3 0  9990
2 48064  87.8928  73.0924 0001563 110.1027 250.0270 13.13480603179088
ONEWEB-0166             
1 48065U 21025Z   24331.24285402 -.00000396  00000+0 -11188-2 0  9993
2 48065  87.8920  73.1709 0001766 110.5049 249.6270 13.13469637179095
ONEWEB-0151             
1 48066U 21025AA  24331.24444359 -.00000228  00000+0 -65862-3 0  9995
2 48066  87.8926  73.1889 0001506  95.9649 264.1651 13.13468187179033
ONEWEB-0170             
1 48067U 21025AB  24331.25237499 -.00000240  00000+0 -69281-3 0  9995
2 48067  87.8926  73.1910 0001713  82.9494 277.1830 13.13469279178993
ONEWEB-0168             
1 48068U 21025AC  24331.23808931 -.00000327  00000+0 -92937-3 0  9999
2 48068  87.8931  73.1677 0001674 106.5531 253.5782 13.13470064179002
ONEWEB-0173             
1 48069U 21025AD  24331.23015452 -.00000246  00000+0 -70848-3 0  9995
2 48069  87.8927  73.1784 0001158 107.4540 252.6716 13.13469965179245
ONEWEB-0171             
1 48070U 21025AE  24330.80960163  .00000219  00000+0  56488-3 0  9999
2 48070  87.8930  73.2991 0001528 100.6082 259.5219 13.13472098179008
ONEWEB-0172             
1 48071U 21025AF  24331.24603687 -.00000183  00000+0 -53603-3 0  9992
2 48071  87.8932  73.1791 0001440  99.3435 260.7857 13.13471583179951
ONEWEB-0174             
1 48072U 21025AG  24330.84766925 -.00000256  00000+0 -73655-3 0  9993
2 48072  87.8933  73.2713 0001644 103.5843 256.5469 13.13472586179221
ONEWEB-0175             
1 48073U 21025AH  24331.71418853 -.00000667  00000+0 -18602-2 0  9991
2 48073  87.8924  73.0787 0001551  88.9027 271.2280 13.13471070178993
ONEWEB-0177             
1 48074U 21025AJ  24330.66043009  .00000446  00000+0  11863-2 0  9997
2 48074  87.8940  73.2993 0001368 112.2620 247.8654 13.13466352179047
ONEWEB-0178             
1 48075U 21025AK  24331.82068322  .00000326  00000+0  85765-3 0  9992
2 48075  87.8930  73.0964 0001462 108.4251 251.7037 13.13469638179246
ONEWEB-0108             
1 48076U 21025AL  24330.79054670 -.00000161  00000+0 -47604-3 0  9998
2 48076  87.8922  73.2694 0001847 105.9314 254.2018 13.13470476179035
ONEWEB-0169             
1 48077U 21025AM  24331.73642297 -.00000171  00000+0 -50221-3 0  9992
2 48077  87.8928  73.0942 0001944 103.8578 256.2768 13.13470278177811
ONEWEB-0176             
1 48210U 21031A   24331.64478752  .00000211  00000+0  53465-3 0  9997
2 48210  87.9022  42.5583 0001748  96.5682 263.5646 13.14501042173754
ONEWEB-0184             
1 48211U 21031B   24330.70442706 -.00000167  00000+0 -48444-3 0  9997
2 48211  87.9023  42.7221 0001230  75.8707 284.2559 13.14503623173605
ONEWEB-0179             
1 48212U 21031C   24331.43546704  .00000125  00000+0  30165-3 0  9995
2 48212  87.9029  42.5860 0001653 103.7585 256.3729 13.14501408173746
ONEWEB-0180             
1 48213U 21031D   24331.69713601 -.00000172  00000+0 -49857-3 0  9998
2 48213  87.9026  42.5274 0001544 102.8651 257.2651 13.14504044173660
ONEWEB-0218             
1 48214U 21031E   24332.17602899  .00000546  00000+0  14385-2 0  9999
2 48214  87.9027  42.4329 0000912  68.0152 292.1074 13.14499064173885
ONEWEB-0209             
1 48215U 21031F   24331.63210834 -.00000049  00000+0 -16787-3 0  9993
2 48215  87.9028  42.5797 0001694 104.9659 255.1658 13.14501923173815
ONEWEB-0198             
1 48216U 21031G   24331.15952261 -.00000288  00000+0 -81113-3 0  9998
2 48216  87.9027  42.6774 0001350  99.3762 260.7520 13.14504468173842
ONEWEB-0189             
1 48217U 21031H   24332.16174333 -.00000485  00000+0 -13420-2 0  9991
2 48217  87.9025  42.4522 0001243 103.3399 256.7869 13.14501813173733
ONEWEB-0196             
1 48218U 21031J   24331.83508037 -.00000137  00000+0 -40399-3 0  9997
2 48218  87.9031  42.5248 0001700  99.5513 260.5809 13.14500985173690
ONEWEB-0183             
1 48219U 21031K   24331.20076542  .00000279  00000+0  71904-3 0  9991
2 48219  87.9027  42.6653 0001914 109.4173 250.7163 13.14501371173703
ONEWEB-0185             
1 48220U 21031L   24331.22693468 -.00000110  00000+0 -33234-3 0  9997
2 48220  87.9027  42.6310 0001658 108.3409 251.7901 13.14502223173630
ONEWEB-0187             
1 48221U 21031M   24331.65352144  .00000275  00000+0  70722-3 0  9991
2 48221  87.9021  42.5817 0001792 106.5951 253.5376 13.14501555173708
ONEWEB-0192             
1 48222U 21031N   24331.63367423 -.00000165  00000+0 -48017-3 0  9998
2 48222  87.9023  42.5815 0001768 102.7032 257.4296 13.14502681173615
ONEWEB-0219             
1 48223U 21031P   24331.23247257 -.00000163  00000+0 -47445-3 0  9999
2 48223  87.9028  42.6357 0001665 109.0989 251.0321 13.14504983173773
ONEWEB-0202             
1 48224U 21031Q   24331.44180926  .00000027  00000+0  37338-4 0  9990
2 48224  87.9024  42.6117 0000899  99.4778 260.6453 13.14503232173778
ONEWEB-0204             
1 48225U 21031R   24332.16094900 -.00000134  00000+0 -39705-3 0  9997
2 48225  87.9025  42.4806 0002109 106.2618 253.8744 13.14504016173777
ONEWEB-0205             
1 48226U 21031S   24331.90803614 -.00000003  00000+0 -42931-4 0  9990
2 48226  87.9028  42.5024 0001684 108.8671 251.2642 13.14502614173746
ONEWEB-0206             
1 48227U 21031T   24332.18554256  .00000222  00000+0  56352-3 0  9999
2 48227  87.9024  42.4326 0001733 109.0094 251.1224 13.14501849173748
ONEWEB-0182             
1 48228U 21031U   24332.18078948  .00000205  00000+0  51981-3 0  9993
2 48228  87.9026  42.4674 0001930 101.1732 258.9614 13.14501220173952
ONEWEB-0186             
1 48229U 21031V   24331.65907179  .00000301  00000+0  77863-3 0  9996
2 48229  87.9028  42.5342 0001732 102.0101 258.1223 13.14502291173821
ONEWEB-0181             
1 48230U 21031W   24331.63684392  .00000052  00000+0  10458-3 0  9995
2 48230  87.9024  42.6086 0001579 102.4969 257.6337 13.14505451173674
ONEWEB-0188             
1 48231U 21031X   24331.44656993  .00000008  00000+0 -11933-4 0  9993
2 48231  87.9029  42.6408 0001768 104.2592 255.8734 13.14501729173552
ONEWEB-0220             
1 48232U 21031Y   24332.17126722 -.00000017  00000+0 -79136-4 0  9997
2 48232  87.9023  42.4517 0001633 108.7318 251.3989 13.14500871173912
ONEWEB-0165             
1 48233U 21031Z   24331.66698442  .00000125  00000+0  30184-3 0  9991
2 48233  87.9028  42.5791 0001582 108.5259 251.6042 13.14502467173802
ONEWEB-0199             
1 48234U 21031AA  24332.18394766  .00000130  00000+0  31541-3 0  9996
2 48234  87.9021  42.4445 0001941  95.4643 264.6708 13.14503355173777
ONEWEB-0203             
1 48235U 21031AB  24332.17444588  .00000105  00000+0  24973-3 0  9997
2 48235  87.9025  42.4474 0001779  88.1384 271.9949 13.14501580173781
ONEWEB-0197             
1 48236U 21031AC  24330.70361310 -.00000157  00000+0 -45880-3 0  9995
2 48236  87.9027  42.7495 0002106 110.4393 249.6963 13.14504866173502
ONEWEB-0194             
1 48237U 21031AD  24331.67175192  .00000065  00000+0  14097-3 0  9996
2 48237  87.9028  42.5517 0001842  93.4291 266.7049 13.14501666173803
ONEWEB-0193             
1 48238U 21031AE  24331.23089625 -.00000196  00000+0 -56428-3 0  9995
2 48238  87.9029  42.6471 0001625  93.3529 266.7786 13.14501843173699
ONEWEB-0191             
1 48239U 21031AF  24330.70916181 -.00000368  00000+0 -10272-2 0  9990
2 48239  87.9021  42.7293 0001525 101.5955 258.5346 13.14504028173485
ONEWEB-0195             
1 48240U 21031AG  24331.44736814 -.00000101  00000+0 -30778-3 0  9996
2 48240  87.9024  42.5815 0001337 107.9561 252.1715 13.14503905173564
ONEWEB-0201             
1 48241U 21031AH  24331.43624469  .00000162  00000+0  40382-3 0  9995
2 48241  87.9028  42.6237 0001636 107.3015 252.8294 13.14502859173799
ONEWEB-0207             
1 48242U 21031AJ  24331.26341408  .00000209  00000+0  52872-3 0  9995
2 48242  87.9027  42.6220 0001840 108.4234 251.7096 13.14504189173687
